1 36395U 10005A   15330.53444928 -.00000035  00000-0  00000+0 0  9991
2 36395  28.2344 150.7462 0002123 159.9842 205.2942  1.00272339 21376
1 36395U 10005A   15333.51295514 -.00000043  00000-0  00000+0 0  9996
2 36395  28.2369 150.6917 0002185 160.4167 200.1124  1.00272179 21404
1 36395U 10005A   15334.50028209 -.00000041 +00000-0 +00000-0 0  9990
2 36395 028.2377 150.6736 0002208 160.4447 196.5123 01.00272127021432
1 36395U 10005A   15335.28048038 -.00000038  00000-0  00000+0 0  9993
2 36395  28.2384 150.6592 0002228 160.6881 117.9227  1.00272085 21419
1 36395U 10005A   15336.51484383 -.00000032  00000-0  00000+0 0  9991
2 36395  28.2394 150.6365 0002252 160.7173 203.5016  1.00272017 21435
1 36395U 10005A   15337.27986250 -.00000027 +00000-0 +00000-0 0  9990
2 36395 028.2401 150.6224 0002264 161.0365 119.3559 01.00271976021460
1 36395U 10005A   15339.19873980 -.00000017  00000-0  00000+0 0  9996
2 36395  28.2418 150.5868 0002272 160.8099  92.3010  1.00271874 21459
1 36395U 10005A   15340.28307052 -.00000013  00000-0  00000+0 0  9996
2 36395  28.2427 150.5668 0002277 160.7052 123.8509  1.00271818 21462
1 36395U 10005A   15340.53821471 -.00000012 +00000-0 +00000-0 0  9990
2 36395 028.2429 150.5621 0002273 160.4273 216.2363 01.00271805021507
1 36395U 10005A   15341.50764639 -.00000011  00000-0  00000+0 0  9998
2 36395  28.2438 150.5441 0002290 160.4651 206.1646  1.00271756 21480
1 36395U 10005A   15342.47797918 -.00000011 +00000-0 +00000-0 0  9992
2 36395 028.2447 150.5262 0002294 160.3043 196.6167 01.00271707021510
1 36395U 10005A   15346.61506228 -.00000026  00000-0  00000+0 0  9999
2 36395  28.2482 150.4500 0002296 160.5580 249.8536  1.00271503 21530
1 36395U 10005A   15348.47738741 -.00000032  00000-0  00000+0 0  9999
2 36395  28.2497 150.4158 0002284 161.0176 201.6945  1.00271407 21554
1 36395U 10005A   15349.46512242 -.00000033 +00000-0 +00000-0 0  9997
2 36395 028.2505 150.3977 0002287 161.4578 197.8270 01.00271354021586
1 36395U 10005A   15352.49656964 -.00000029  00000-0  00000+0 0  9998
2 36395  28.2532 150.3424 0002310 162.7811 210.8565  1.00271195 21591
1 36395U 10005A   15354.45954672 -.00000030  00000-0  00000+0 0  9995
2 36395  28.2555 150.3059 0002245 157.8924 204.3768  1.00270783 21615
1 36395U 10005A   15357.43284373 -.00000043  00000-0  00000+0 0  9994
2 36395  28.2541 150.2534 0002745 209.8747 145.7132  1.00270031 21634
1 36395U 10005A   15361.46747735 -.00000057  00000-0  00000+0 0  9993
2 36395  28.2613 150.1786 0002310 158.4365 213.6784  1.00270438 21689
1 36395U 10005A   15362.42420855 -.00000054 +00000-0 +00000-0 0  9999
2 36395 028.2621 150.1610 0002336 159.1152 198.3762 01.00270377021715
1 36395U 10005A   15363.42145353 -.00000051  00000-0  00000+0 0  9993
2 36395  28.2629 150.1427 0002372 160.7602 196.7325  1.00270307 21694
1 36395U 10005A   15365.61504485 -.00000040  00000-0  00000+0 0  9999
2 36395  28.2646 150.1024 0002392 164.2282 265.1408  1.00270184 21721
1 36395U 10005A   16004.17943959 -.00000032  00000-0  00000+0 0  9995
2 36395  28.2675 150.0369 0002403 164.9301 111.1685  1.00270000 21753
1 36395U 10005A   16005.40366032 -.00000034  00000-0  00000+0 0  9995
2 36395  28.2684 150.0145 0002397 165.7824 192.2534  1.00269945 21766
1 36395U 10005A   16007.12475951 -.00000041  00000-0  00000+0 0  9995
2 36395  28.2698 149.9830 0002400 166.1894  93.1541  1.00269866 21787
1 36395U 10005A   16007.43002205 -.00000042 +00000-0 +00000-0 0  9999
2 36395 028.2700 149.9774 0002388 166.1674 203.3743 01.00269858021824
1 36395U 10005A   16008.42166012 -.00000047  00000-0  00000+0 0  9990
2 36395  28.2707 149.9593 0002380 166.7013 200.8162  1.00269811 21809
1 36395U 10005A   16009.58374507 -.00000053  00000-0  00000+0 0  9995
2 36395  28.2717 149.9380 0002341 165.5502 261.4741  1.00269773 21815
1 36395U 10005A   16010.09714855 -.00000055 +00000-0 +00000-0 0  9990
2 36395 028.2720 149.9286 0002325 166.1209 086.2390 01.00269745021842
1 36395U 10005A   16011.39136778 -.00000058  00000-0  00000+0 0  9998
2 36395  28.2730 149.9050 0002312 166.4846 193.0811  1.00269682 21821
1 36395U 10005A   16015.36729447 -.00000055  00000-0  00000+0 0  9997
2 36395  28.2762 149.8327 0002305 168.1347 186.7168  1.00269490 21864
1 36395U 10005A   16016.17118050 -.00000056 +00000-0 +00000-0 0  9991
2 36395 028.2768 149.8181 0002304 168.1126 116.9368 01.00269457021907
1 36395U 10005A   16018.41838741 -.00000063  00000-0  00000+0 0  9993
2 36395  28.2786 149.7774 0002318 169.1566 207.1197  1.00269358 21901
1 36395U 10005A   16019.38037529 -.00000069 +00000-0 +00000-0 0  9992
2 36395 028.2793 149.7600 0002325 169.8501 193.6971 01.00269312021944
1 36395U 10005A   16020.39722922 -.00000075  00000-0  00000+0 0  9999
2 36395  28.2801 149.7416 0002333 170.2083 200.4158  1.00269263 21926
1 36395U 10005A   16021.36472689  .00000000  00000-0  10000-3 0  9991
2 36395  28.2811 149.7235 0002199 148.7845 211.0980  1.00268316 21921
1 36395U 10005A   16021.54299414 -.00000082  00000-0  00000+0 0  9990
2 36395  28.2811 149.7209 0002360 171.7910 252.4450  1.00269200 21936
1 36395U 10005A   16024.35418053 -.00000085  00000-0  00000+0 0  9997
2 36395  28.2831 149.6696 0002396 172.3518 186.7001  1.00269063 21957
1 36395U 10005A   16025.39740971 -.00000081  00000-0  00000+0 0  9995
2 36395  28.2839 149.6505 0002410 172.6185 203.0304  1.00269013 21970
1 36395U 10005A   16027.62574382 -.00000070  00000-0  00000+0 0  9992
2 36395  28.2856 149.6096 0002430 174.1434 285.9142  1.00268902 21997
1 36395U 10005A   16030.14970332 -.00000061  00000-0  00000+0 0  9998
2 36395  28.2875 149.5631 0002405 175.0301 116.1536  1.00268785 22012
1 36395U 10005A   16030.31766897 -.00000060 +00000-0 +00000-0 0  9996
2 36395 028.2876 149.5600 0002402 174.6189 177.1989 01.00268779022040
1 36395U 10005A   16031.40946198 -.00000060  00000-0  00000+0 0  9990
2 36395  28.2884 149.5399 0002391 174.6989 211.2457  1.00268732 22037
1 36395U 10005A   16034.23722105 -.00000067  00000-0  00000+0 0  9991
2 36395  28.2905 149.4880 0002365 175.4135 151.3242  1.00268614 22055
1 36395U 10005A   16036.31830956 -.00000076  00000-0  00000+0 0  9996
2 36395  28.2920 149.4498 0002337 176.2902 181.6997  1.00268529 22077
1 36395U 10005A   16038.26197929 -.00000082  00000-0  00000+0 0  9995
2 36395  28.2934 149.4143 0002323 176.5722 163.0631  1.00268453 22094
1 36395U 10005A   16039.21881328 -.00000082 +00000-0 +00000-0 0  9995
2 36395 028.2940 149.3967 0002308 177.0424 148.0002 01.00268410022135
1 36395U 10005A   16040.30149081 -.00000082  00000-0  00000+0 0  9999
2 36395  28.2948 149.3770 0002300 177.6928 178.1852  1.00268364 22115
1 36395U 10005A   16041.50037706 -.00000079  00000-0  00000+0 0  9998
2 36395  28.2957 149.3552 0002295 178.4282 250.2352  1.00268312 22130
1 36395U 10005A   16046.31243679 -.00000087  00000-0  00000+0 0  9999
2 36395  28.2992 149.2678 0002325 181.0908 184.6736  1.00268118 22181
1 36395U 10005A   16048.32944644 -.00000098  00000-0  00000+0 0  9994
2 36395  28.3006 149.2311 0002335 182.4175 191.4641  1.00268038 22209
1 36395U 10005A   16054.08895865 -.00000089  00000-0  00000+0 0  9994
2 36395  28.3045 149.1252 0002373 183.6276 109.3673  1.00267802 22258
1 36395U 10005A   16054.25360903 -.00000088 +00000-0 +00000-0 0  9993
2 36395 028.3047 149.1222 0002372 184.8205 167.6106 01.00267791022289
1 36395U 10005A   16055.09923554 -.00000083  00000-0  00000+0 0  9997
2 36395  28.3053 149.1065 0002368 185.0902 112.6012  1.00267758 22260
1 36395U 10005A   16055.52077681 -.00000080 +00000-0 +00000-0 0  9994
2 36395 028.3056 149.0987 0002369 185.5304 264.3317 01.00267739022304
1 36395U 10005A   16056.13353543 -.00000077  00000-0  00000+0 0  9991
2 36395  28.3060 149.0873 0002352 186.0630 124.9969  1.00267711 22273
1 36395U 10005A   16056.46673984 -.00000075 +00000-0 +00000-0 0  9990
2 36395 028.3063 149.0812 0002346 185.8303 245.5121 01.00267700022319
1 36395U 10005A   16057.54976315 -.00000072  00000-0  00000+0 0  9990
2 36395  28.3071 149.0611 0002331 185.9548 276.3446  1.00267659 22293
1 36395U 10005A   16058.55704801 -.00000070  00000-0  00000+0 0  9999
2 36395  28.3079 149.0425 0002318 186.0226 279.8929  1.00267624 22302
1 36395U 10005A   16059.57400189 -.00000070  00000-0  00000+0 0  9994
2 36395  28.3086 149.0237 0002303 186.1075 286.9144  1.00267589 22317
1 36395U 10005A   16060.45527684 -.00000071 +00000-0 +00000-0 0  9995
2 36395 028.3093 149.0075 0002285 186.4406 244.7095 01.00267557022351
1 36395U 10005A   16061.10946088 -.00000073  00000-0  00000+0 0  9992
2 36395  28.3097 148.9954 0002277 186.7869 120.5146  1.00267535 22327
1 36395U 10005A   16061.52655894 -.00000074 +00000-0 +00000-0 0  9992
2 36395 028.3100 148.9877 0002272 186.7948 271.0733 01.00267521022362
1 36395U 10005A   16062.15581493 -.00000076  00000-0  00000+0 0  9996
2 36395  28.3104 148.9761 0002262 187.1541 137.8667  1.00267499 22337
1 36395U 10005A   16062.47472845 -.00000077 +00000-0 +00000-0 0  9993
2 36395 028.3107 148.9702 0002257 187.2812 252.8630 01.00267488022371
1 36395U 10005A   16063.25003563  .00000000  00000-0  10000-3 0  9996
2 36395  28.3112 148.9565 0002116 169.7423 190.2774  1.00265125 22359
1 36395U 10005A   16063.55717380 -.00000082  00000-0  00000+0 0  9994
2 36395  28.3117 148.9487 0002248 172.2392 298.6714  1.00276697 22350
1 36395U 10005A   16064.50390714 -.00000084 +00000-0 +00000-0 0  9991
2 36395 028.3121 148.9325 0002198 172.0343 280.6622 01.00276194022399
1 36395U 10005A   16065.07306387 -.00000085  00000-0  00000+0 0  9997
2 36395  28.3125 148.9220 0002190 172.3698 125.8025  1.00276208 22365
1 36395U 10005A   16065.51799677 -.00000086 +00000-0 +00000-0 0  9996
2 36395 028.3128 148.9139 0002191 172.5800 286.2208 01.00276184022408
1 36395U 10005A   16066.09606716 -.00000086  00000-0  00000+0 0  9990
2 36395  28.3132 148.9033 0002184 172.6815 134.8131  1.00276171 22370
